
# Worst residual: 8.26 km
# MJD 58389.000000 (2018 Sep 28  0:00)
2015-005B = NORAD 40385
1 40385U 15005B   18271.99919926  .00000000  00000-0  00000-0 0    07
2 40385 023.4262 195.0273 7671058 040.0388 198.6249 01.11109120    00

# Worst residual: 7.76 km
# MJD 58391.000000 (2018 Sep 30  0:00)
2015-005B = NORAD 40385
1 40385U 15005B   18273.99919926  .00000000  00000-0  00000-0 0    09
2 40385 023.4034 194.7831 7672280 040.4220 278.5971 01.11109921    09

# Worst residual: 7.68 km
# MJD 58393.000000 (2018 Oct  2  0:00)
2015-005B = NORAD 40385
1 40385U 15005B   18275.99919926  .00000000  00000-0  00000-0 0    01
2 40385 023.3864 194.5455 7673245 040.7964 358.5770 01.11109968    06

# Worst residual: 8.07 km
# MJD 58395.000000 (2018 Oct  4  0:00)
2015-005B = NORAD 40385
1 40385U 15005B   18277.99919926  .00000000  00000-0  00000-0 0    03
2 40385 023.3721 194.3137 7674782 041.1645 078.5553 01.11110118    08

# Worst residual: 8.02 km
# MJD 58397.000000 (2018 Oct  6  0:00)
2015-005B = NORAD 40385
1 40385U 15005B   18279.99919926  .00000000  00000-0  00000-0 0    05
2 40385 023.3592 194.0886 7676463 041.5274 158.5321 01.11109600    08

# Worst residual: 7.77 km
# MJD 58399.000000 (2018 Oct  8  0:00)
2015-005B = NORAD 40385
1 40385U 15005B   18281.99919926  .00000000  00000-0  00000-0 0    08
2 40385 023.3447 193.8605 7677952 041.8937 238.5080 01.11109769    03

# Worst residual: 7.19 km
# MJD 58401.000000 (2018 Oct 10  0:00)
2015-005B = NORAD 40385
1 40385U 15005B   18283.99919926  .00000000  00000-0  00000-0 0    00
2 40385 023.3336 193.6358 7679132 042.2581 318.4881 01.11110304    09

# Worst residual: 6.90 km
# MJD 58403.000000 (2018 Oct 12  0:00)
2015-005B = NORAD 40385
1 40385U 15005B   18285.99919926  .00000000  00000-0  00000-0 0    02
2 40385 023.3227 193.4132 7680178 042.6201 038.4702 01.11109875    03

# Worst residual: 6.87 km
# MJD 58405.000000 (2018 Oct 14  0:00)
2015-005B = NORAD 40385
1 40385U 15005B   18287.99919926  .00000000  00000-0  00000-0 0    04
2 40385 023.3130 193.1932 7681402 042.9804 118.4530 01.11110662    08

# Worst residual: 7.50 km
# MJD 58407.000000 (2018 Oct 16  0:00)
2015-005B = NORAD 40385
1 40385U 15005B   18289.99919926  .00000000  00000-0  00000-0 0    06
2 40385 023.3006 192.9692 7682399 043.3426 198.4385 01.11110992    03

# Worst residual: 8.48 km
# MJD 58409.000000 (2018 Oct 18  0:00)
2015-005B = NORAD 40385
1 40385U 15005B   18291.99919926  .00000000  00000-0  00000-0 0    09
2 40385 023.2864 192.7365 7683368 043.7114 278.4276 01.11111459    01

# Worst residual: 8.70 km
# MJD 58411.000000 (2018 Oct 20  0:00)
2015-005B = NORAD 40385
1 40385U 15005B   18293.99919926  .00000000  00000-0  00000-0 0    01
2 40385 023.2738 192.5046 7684366 044.0785 358.4222 01.11111699    08

# Worst residual: 8.62 km
# MJD 58413.000000 (2018 Oct 22  0:00)
2015-005B = NORAD 40385
1 40385U 15005B   18295.99919926  .00000000  00000-0  00000-0 0    03
2 40385 023.2597 192.2702 7686049 044.4483 078.4139 01.11111394    04

# Worst residual: 8.91 km
# MJD 58415.000000 (2018 Oct 24  0:00)
2015-005B = NORAD 40385
1 40385U 15005B   18297.99919926  .00000000  00000-0  00000-0 0    05
2 40385 023.2438 192.0333 7688107 044.8244 158.3974 01.11109900    07

# Worst residual: 8.48 km
# MJD 58417.000000 (2018 Oct 26  0:00)
2015-005B = NORAD 40385
1 40385U 15005B   18299.99919926  .00000000  00000-0  00000-0 0    07
2 40385 023.2210 191.7787 7689730 045.2210 238.3715 01.11109874    07

# Worst residual: 7.61 km
# MJD 58419.000000 (2018 Oct 28  0:00)
2015-005B = NORAD 40385
1 40385U 15005B   18301.99919926  .00000000  00000-0  00000-0 0    01
2 40385 023.2008 191.5207 7690633 045.6197 318.3531 01.11111213    04

# Worst residual: 7.91 km
# MJD 58421.000000 (2018 Oct 30  0:00)
2015-005B = NORAD 40385
1 40385U 15005B   18303.99919926  .00000000  00000-0  00000-0 0    03
2 40385 023.1855 191.2728 7691656 046.0057 038.3398 01.11110319    00

# Worst residual: 8.47 km
# MJD 58423.000000 (2018 Nov  1  0:00)
2015-005B = NORAD 40385
1 40385U 15005B   18305.99919926  .00000000  00000-0  00000-0 0    05
2 40385 023.1738 191.0364 7693367 046.3829 118.3201 01.11110143    02

# Worst residual: 8.53 km
# MJD 58425.000000 (2018 Nov  3  0:00)
2015-005B = NORAD 40385
1 40385U 15005B   18307.99919926  .00000000  00000-0  00000-0 0    07
2 40385 023.1603 190.7999 7694895 046.7611 198.2980 01.11110027    05

# Worst residual: 7.55 km
# MJD 58427.000000 (2018 Nov  5  0:00)
2015-005B = NORAD 40385
1 40385U 15005B   18309.99919926  .00000000  00000-0  00000-0 0    09
2 40385 023.1471 190.5609 7696138 047.1421 278.2790 01.11110470    00

# Worst residual: 6.88 km
# MJD 58429.000000 (2018 Nov  7  0:00)
2015-005B = NORAD 40385
1 40385U 15005B   18311.99919926  .00000000  00000-0  00000-0 0    02
2 40385 023.1375 190.3293 7697081 047.5167 358.2641 01.11110481    05

# Worst residual: 7.10 km
# MJD 58431.000000 (2018 Nov  9  0:00)
2015-005B = NORAD 40385
1 40385U 15005B   18313.99919926  .00000000  00000-0  00000-0 0    04
2 40385 023.1267 190.0971 7698253 047.8920 078.2485 01.11110596    09

# Worst residual: 7.52 km
# MJD 58433.000000 (2018 Nov 11  0:00)
2015-005B = NORAD 40385
1 40385U 15005B   18315.99919926  .00000000  00000-0  00000-0 0    06
2 40385 023.1165 189.8677 7699298 048.2649 158.2349 01.11111206    05

# Worst residual: 7.83 km
# MJD 58435.000000 (2018 Nov 13  0:00)
2015-005B = NORAD 40385
1 40385U 15005B   18317.99919926  .00000000  00000-0  00000-0 0    08
2 40385 023.1031 189.6291 7700192 048.6441 238.2247 01.11111684    03

# Worst residual: 8.35 km
# MJD 58437.000000 (2018 Nov 15  0:00)
2015-005B = NORAD 40385
1 40385U 15005B   18319.99919926  .00000000  00000-0  00000-0 0    00
2 40385 023.0905 189.3877 7700991 049.0252 318.2194 01.11112280    04

# Worst residual: 8.34 km
# MJD 58439.000000 (2018 Nov 17  0:00)
2015-005B = NORAD 40385
1 40385U 15005B   18321.99919926  .00000000  00000-0  00000-0 0    03
2 40385 023.0767 189.1428 7701903 049.4074 038.2189 01.11112110    05

# Worst residual: 8.67 km
# MJD 58441.000000 (2018 Nov 19  0:00)
2015-005B = NORAD 40385
1 40385U 15005B   18323.99919926  .00000000  00000-0  00000-0 0    05
2 40385 023.0639 188.9017 7703608 049.7872 118.2150 01.11111622    01
